ORBCOMM FM05            
1 25117U 97084F   25101.88375629  .00003535  00000+0  10299-2 0  9999
2 25117  45.0151 326.3478 0001644 239.6674 120.4015 14.45663208431953
ORBCOMM FM06            
1 25118U 97084G   25100.93848368  .00003578  00000+0  10391-2 0  9990
2 25118  45.0144 330.6953 0000582 246.0474 239.5288 14.45797683431793
ORBCOMM FM07            
1 25119U 97084H   25101.89472154  .00003373  00000+0  98220-3 0  9994
2 25119  45.0141 326.8710 0002410 231.2903 128.7733 14.45776819431943
ORBCOMM FM03            
1 25158U 98007B   25101.66421051  .00002216  00000+0  82484-3 0  9998
2 25158 107.9661 358.9733 0045757   3.3165 356.8270 14.34292003414645
ORBCOMM FM04            
1 25159U 98007C   25100.68384725  .00002485  00000+0  91638-3 0  9995
2 25159 107.9647   0.1346 0041526   2.2845 357.8478 14.34542698414547
ORBCOMM FM17            
1 25413U 98046A   25100.79981753  .00002259  00000+0  83579-3 0  9991
2 25413  44.9932 215.6055 0004230 227.5235 132.5254 14.34935458393493
ORBCOMM FM18            
1 25414U 98046B   25101.81597756  .00002707  00000+0  92669-3 0  9990
2 25414  44.9908 129.9683 0006674 295.4676  64.5481 14.38327071394866
ORBCOMM FM19            
1 25415U 98046C   25101.43320890  .00002840  00000+0  97370-3 0  9994
2 25415  44.9921 133.6786 0005582 286.5274 211.6132 14.38133427394790
