<?xml version="1.0" encoding="UTF-8"?>
<ndm xmlns:xsi="http://www.w3.org/2001/XMLSchema-instance" xsi:noNamespaceSchemaLocation="https://sanaregistry.org/r/ndmxml_unqualified/ndmxml-2.0.0-master-2.0.xsd">
<omm id="CCSDS_OMM_VERS" version="2.0">
<header><CREATION_DATE/><ORIGINATOR/></header><body><segment><metadata><OBJECT_NAME>ORBCOMM FM05</OBJECT_NAME><OBJECT_ID>1997-084F</OBJECT_ID><CENTER_NAME>EARTH</CENTER_NAME><REF_FRAME>TEME</REF_FRAME><TIME_SYSTEM>UTC</TIME_SYSTEM><MEAN_ELEMENT_THEORY>SGP4</MEAN_ELEMENT_THEORY></metadata><data><meanElements><EPOCH>2025-04-11T21:12:36.543456</EPOCH><MEAN_MOTION>14.45663208</MEAN_MOTION><ECCENTRICITY>.0001644</ECCENTRICITY><INCLINATION>45.0151</INCLINATION><RA_OF_ASC_NODE>326.3478</RA_OF_ASC_NODE><ARG_OF_PERICENTER>239.6674</ARG_OF_PERICENTER><MEAN_ANOMALY>120.4015</MEAN_ANOMALY></meanElements><tleParameters><EPHEMERIS_TYPE>0</EPHEMERIS_TYPE><CLASSIFICATION_TYPE>U</CLASSIFICATION_TYPE><NORAD_CAT_ID>25117</NORAD_CAT_ID><ELEMENT_SET_NO>999</ELEMENT_SET_NO><REV_AT_EPOCH>43195</REV_AT_EPOCH><BSTAR>.10299E-2</BSTAR><MEAN_MOTION_DOT>.3535E-4</MEAN_MOTION_DOT><MEAN_MOTION_DDOT>0</MEAN_MOTION_DDOT></tleParameters></data></segment></body></omm>
<omm id="CCSDS_OMM_VERS" version="2.0">
<header><CREATION_DATE/><ORIGINATOR/></header><body><segment><metadata><OBJECT_NAME>ORBCOMM FM06</OBJECT_NAME><OBJECT_ID>1997-084G</OBJECT_ID><CENTER_NAME>EARTH</CENTER_NAME><REF_FRAME>TEME</REF_FRAME><TIME_SYSTEM>UTC</TIME_SYSTEM><MEAN_ELEMENT_THEORY>SGP4</MEAN_ELEMENT_THEORY></metadata><data><meanElements><EPOCH>2025-04-10T22:31:24.989952</EPOCH><MEAN_MOTION>14.45797683</MEAN_MOTION><ECCENTRICITY>.0000582</ECCENTRICITY><INCLINATION>45.0144</INCLINATION><RA_OF_ASC_NODE>330.6953</RA_OF_ASC_NODE><ARG_OF_PERICENTER>246.0474</ARG_OF_PERICENTER><MEAN_ANOMALY>239.5288</MEAN_ANOMALY></meanElements><tleParameters><EPHEMERIS_TYPE>0</EPHEMERIS_TYPE><CLASSIFICATION_TYPE>U</CLASSIFICATION_TYPE><NORAD_CAT_ID>25118</NORAD_CAT_ID><ELEMENT_SET_NO>999</ELEMENT_SET_NO><REV_AT_EPOCH>43179</REV_AT_EPOCH><BSTAR>.10391E-2</BSTAR><MEAN_MOTION_DOT>.3578E-4</MEAN_MOTION_DOT><MEAN_MOTION_DDOT>0</MEAN_MOTION_DDOT></tleParameters></data></segment></body></omm>
<omm id="CCSDS_OMM_VERS" version="2.0">
<header><CREATION_DATE/><ORIGINATOR/></header><body><segment><metadata><OBJECT_NAME>ORBCOMM FM07</OBJECT_NAME><OBJECT_ID>1997-084H</OBJECT_ID><CENTER_NAME>EARTH</CENTER_NAME><REF_FRAME>TEME</REF_FRAME><TIME_SYSTEM>UTC</TIME_SYSTEM><MEAN_ELEMENT_THEORY>SGP4</MEAN_ELEMENT_THEORY></metadata><data><meanElements><EPOCH>2025-04-11T21:28:23.941056</EPOCH><MEAN_MOTION>14.45776819</MEAN_MOTION><ECCENTRICITY>.000241</ECCENTRICITY><INCLINATION>45.0141</INCLINATION><RA_OF_ASC_NODE>326.8710</RA_OF_ASC_NODE><ARG_OF_PERICENTER>231.2903</ARG_OF_PERICENTER><MEAN_ANOMALY>128.7733</MEAN_ANOMALY></meanElements><tleParameters><EPHEMERIS_TYPE>0</EPHEMERIS_TYPE><CLASSIFICATION_TYPE>U</CLASSIFICATION_TYPE><NORAD_CAT_ID>25119</NORAD_CAT_ID><ELEMENT_SET_NO>999</ELEMENT_SET_NO><REV_AT_EPOCH>43194</REV_AT_EPOCH><BSTAR>.9822E-3</BSTAR><MEAN_MOTION_DOT>.3373E-4</MEAN_MOTION_DOT><MEAN_MOTION_DDOT>0</MEAN_MOTION_DDOT></tleParameters></data></segment></body></omm>
<omm id="CCSDS_OMM_VERS" version="2.0">
<header><CREATION_DATE/><ORIGINATOR/></header><body><segment><metadata><OBJECT_NAME>ORBCOMM FM03</OBJECT_NAME><OBJECT_ID>1998-007B</OBJECT_ID><CENTER_NAME>EARTH</CENTER_NAME><REF_FRAME>TEME</REF_FRAME><TIME_SYSTEM>UTC</TIME_SYSTEM><MEAN_ELEMENT_THEORY>SGP4</MEAN_ELEMENT_THEORY></metadata><data><meanElements><EPOCH>2025-04-11T15:56:27.788064</EPOCH><MEAN_MOTION>14.34292003</MEAN_MOTION><ECCENTRICITY>.0045757</ECCENTRICITY><INCLINATION>107.9661</INCLINATION><RA_OF_ASC_NODE>358.9733</RA_OF_ASC_NODE><ARG_OF_PERICENTER>3.3165</ARG_OF_PERICENTER><MEAN_ANOMALY>356.8270</MEAN_ANOMALY></meanElements><tleParameters><EPHEMERIS_TYPE>0</EPHEMERIS_TYPE><CLASSIFICATION_TYPE>U</CLASSIFICATION_TYPE><NORAD_CAT_ID>25158</NORAD_CAT_ID><ELEMENT_SET_NO>999</ELEMENT_SET_NO><REV_AT_EPOCH>41464</REV_AT_EPOCH><BSTAR>.82484E-3</BSTAR><MEAN_MOTION_DOT>.2216E-4</MEAN_MOTION_DOT><MEAN_MOTION_DDOT>0</MEAN_MOTION_DDOT></tleParameters></data></segment></body></omm>
<omm id="CCSDS_OMM_VERS" version="2.0">
<header><CREATION_DATE/><ORIGINATOR/></header><body><segment><metadata><OBJECT_NAME>ORBCOMM FM04</OBJECT_NAME><OBJECT_ID>1998-007C</OBJECT_ID><CENTER_NAME>EARTH</CENTER_NAME><REF_FRAME>TEME</REF_FRAME><TIME_SYSTEM>UTC</TIME_SYSTEM><MEAN_ELEMENT_THEORY>SGP4</MEAN_ELEMENT_THEORY></metadata><data><meanElements><EPOCH>2025-04-10T16:24:44.402400</EPOCH><MEAN_MOTION>14.34542698</MEAN_MOTION><ECCENTRICITY>.0041526</ECCENTRICITY><INCLINATION>107.9647</INCLINATION><RA_OF_ASC_NODE>0.1346</RA_OF_ASC_NODE><ARG_OF_PERICENTER>2.2845</ARG_OF_PERICENTER><MEAN_ANOMALY>357.8478</MEAN_ANOMALY></meanElements><tleParameters><EPHEMERIS_TYPE>0</EPHEMERIS_TYPE><CLASSIFICATION_TYPE>U</CLASSIFICATION_TYPE><NORAD_CAT_ID>25159</NORAD_CAT_ID><ELEMENT_SET_NO>999</ELEMENT_SET_NO><REV_AT_EPOCH>41454</REV_AT_EPOCH><BSTAR>.91638E-3</BSTAR><MEAN_MOTION_DOT>.2485E-4</MEAN_MOTION_DOT><MEAN_MOTION_DDOT>0</MEAN_MOTION_DDOT></tleParameters></data></segment></body></omm>
<omm id="CCSDS_OMM_VERS" version="2.0">
<header><CREATION_DATE/><ORIGINATOR/></header><body><segment><metadata><OBJECT_NAME>ORBCOMM FM17</OBJECT_NAME><OBJECT_ID>1998-046A</OBJECT_ID><CENTER_NAME>EARTH</CENTER_NAME><REF_FRAME>TEME</REF_FRAME><TIME_SYSTEM>UTC</TIME_SYSTEM><MEAN_ELEMENT_THEORY>SGP4</MEAN_ELEMENT_THEORY></metadata><data><meanElements><EPOCH>2025-04-10T19:11:44.234592</EPOCH><MEAN_MOTION>14.34935458</MEAN_MOTION><ECCENTRICITY>.000423</ECCENTRICITY><INCLINATION>44.9932</INCLINATION><RA_OF_ASC_NODE>215.6055</RA_OF_ASC_NODE><ARG_OF_PERICENTER>227.5235</ARG_OF_PERICENTER><MEAN_ANOMALY>132.5254</MEAN_ANOMALY></meanElements><tleParameters><EPHEMERIS_TYPE>0</EPHEMERIS_TYPE><CLASSIFICATION_TYPE>U</CLASSIFICATION_TYPE><NORAD_CAT_ID>25413</NORAD_CAT_ID><ELEMENT_SET_NO>999</ELEMENT_SET_NO><REV_AT_EPOCH>39349</REV_AT_EPOCH><BSTAR>.83579E-3</BSTAR><MEAN_MOTION_DOT>.2259E-4</MEAN_MOTION_DOT><MEAN_MOTION_DDOT>0</MEAN_MOTION_DDOT></tleParameters></data></segment></body></omm>
<omm id="CCSDS_OMM_VERS" version="2.0">
<header><CREATION_DATE/><ORIGINATOR/></header><body><segment><metadata><OBJECT_NAME>ORBCOMM FM18</OBJECT_NAME><OBJECT_ID>1998-046B</OBJECT_ID><CENTER_NAME>EARTH</CENTER_NAME><REF_FRAME>TEME</REF_FRAME><TIME_SYSTEM>UTC</TIME_SYSTEM><MEAN_ELEMENT_THEORY>SGP4</MEAN_ELEMENT_THEORY></metadata><data><meanElements><EPOCH>2025-04-11T19:35:00.461184</EPOCH><MEAN_MOTION>14.38327071</MEAN_MOTION><ECCENTRICITY>.0006674</ECCENTRICITY><INCLINATION>44.9908</INCLINATION><RA_OF_ASC_NODE>129.9683</RA_OF_ASC_NODE><ARG_OF_PERICENTER>295.4676</ARG_OF_PERICENTER><MEAN_ANOMALY>64.5481</MEAN_ANOMALY></meanElements><tleParameters><EPHEMERIS_TYPE>0</EPHEMERIS_TYPE><CLASSIFICATION_TYPE>U</CLASSIFICATION_TYPE><NORAD_CAT_ID>25414</NORAD_CAT_ID><ELEMENT_SET_NO>999</ELEMENT_SET_NO><REV_AT_EPOCH>39486</REV_AT_EPOCH><BSTAR>.92669E-3</BSTAR><MEAN_MOTION_DOT>.2707E-4</MEAN_MOTION_DOT><MEAN_MOTION_DDOT>0</MEAN_MOTION_DDOT></tleParameters></data></segment></body></omm>
<omm id="CCSDS_OMM_VERS" version="2.0">
<header><CREATION_DATE/><ORIGINATOR/></header><body><segment><metadata><OBJECT_NAME>ORBCOMM FM19</OBJECT_NAME><OBJECT_ID>1998-046C</OBJECT_ID><CENTER_NAME>EARTH</CENTER_NAME><REF_FRAME>TEME</REF_FRAME><TIME_SYSTEM>UTC</TIME_SYSTEM><MEAN_ELEMENT_THEORY>SGP4</MEAN_ELEMENT_THEORY></metadata><data><meanElements><EPOCH>2025-04-11T10:23:49.248960</EPOCH><MEAN_MOTION>14.38133427</MEAN_MOTION><ECCENTRICITY>.0005582</ECCENTRICITY><INCLINATION>44.9921</INCLINATION><RA_OF_ASC_NODE>133.6786</RA_OF_ASC_NODE><ARG_OF_PERICENTER>286.5274</ARG_OF_PERICENTER><MEAN_ANOMALY>211.6132</MEAN_ANOMALY></meanElements><tleParameters><EPHEMERIS_TYPE>0</EPHEMERIS_TYPE><CLASSIFICATION_TYPE>U</CLASSIFICATION_TYPE><NORAD_CAT_ID>25415</NORAD_CAT_ID><ELEMENT_SET_NO>999</ELEMENT_SET_NO><REV_AT_EPOCH>39479</REV_AT_EPOCH><BSTAR>.9737E-3</BSTAR><MEAN_MOTION_DOT>.284E-4</MEAN_MOTION_DOT><MEAN_MOTION_DDOT>0</MEAN_MOTION_DDOT></tleParameters></data></segment></body></omm>

</ndm>
